{"type": "FeatureCollection", "features": [ {"type": "Feature", "properties": {"norad_id": 39574, "name": "GPM-CORE", "group": "resource", "lat": 37.203385597456574, "lon": -122.93866485543516, "alt_km": 435.60747418329174, "timestamp": "2025-12-11T15:53:39.199162+00:00", "meta": {"OBJECT_NAME": "GPM-CORE", "OBJECT_ID": "2014-009C", "EPOCH": "2025-12-11T04:50:05.196192", "MEAN_MOTION": 15.44425881, "ECCENTRICITY": 0.00098951, "INCLINATION": 64.9737, "RA_OF_ASC_NODE": 217.8304, "ARG_OF_PERICENTER": 245.0152, "MEAN_ANOMALY": 114.9961, "EPHEMERIS_TYPE": 0, "CLASSIFICATION_TYPE": "U", "NORAD_CAT_ID": 39574, "ELEMENT_SET_NO": 999, "REV_AT_EPOCH": 66877, "BSTAR": 0.00028961611, "MEAN_MOTION_DOT": 0.00013261, "MEAN_MOTION_DDOT": 0}, "tle": {"line1": "1 39574U 14009C   25345.20144903  .00013261  00000+0  28962-3 0  9996", "line2": "2 39574  64.9737 217.8304 0009895 245.0152 114.9961 15.44425881668778"}}, "geometry": {"type": "Point", "coordinates": [-122.93866485543516, 37.203385597456574]}}, {"type": "Feature", "properties": {"norad_id": 39634, "name": "SENTINEL-1A", "group": "resource", "lat": -46.64533875981418, "lon": 162.1557624103384, "alt_km": 703.263702253731, "timestamp": "2025-12-11T15:53:39.199172+00:00", "meta": {"OBJECT_NAME": "SENTINEL-1A", "OBJECT_ID": "2014-016A", "EPOCH": "2025-12-11T04:58:55.286976", "MEAN_MOTION": 14.59199001, "ECCENTRICITY": 0.00012449, "INCLINATION": 98.1804, "RA_OF_ASC_NODE": 350.4713, "ARG_OF_PERICENTER": 83.8227, "MEAN_ANOMALY": 276.3115, "EPHEMERIS_TYPE": 0, "CLASSIFICATION_TYPE": "U", "NORAD_CAT_ID": 39634, "ELEMENT_SET_NO": 999, "REV_AT_EPOCH": 62260, "BSTAR": 1.007976e-05, "MEAN_MOTION_DOT": 2e-08, "MEAN_MOTION_DDOT": 0}, "tle": {"line1": "1 39634U 14016A   25345.20758434  .00000002  00000+0  10080-4 0  9993", "line2": "2 39634  98.1804 350.4713 0001244  83.8227 276.3115 14.59199001622601"}}, "geometry": {"type": "Point", "coordinates": [162.1557624103384, -46.64533875981418]}}, {"type": "Feature", "properties": {"norad_id": 39731, "name": "KAZEOSAT 1", "group": "resource", "lat": -81.43296697818172, "lon": 160.66083326148797, "alt_km": 759.8056802009887, "timestamp": "2025-12-11T15:53:39.199182+00:00", "meta": {"OBJECT_NAME": "KAZEOSAT 1", "OBJECT_ID": "2014-024A", "EPOCH": "2025-12-11T06:19:42.892896", "MEAN_MOTION": 14.42060791, "ECCENTRICITY": 0.0001081, "INCLINATION": 98.343, "RA_OF_ASC_NODE": 57.2037, "ARG_OF_PERICENTER": 95.4805, "MEAN_ANOMALY": 264.6508, "EPHEMERIS_TYPE": 0, "CLASSIFICATION_TYPE": "U", "NORAD_CAT_ID": 39731, "ELEMENT_SET_NO": 999, "REV_AT_EPOCH": 61147, "BSTAR": 8.242624e-05, "MEAN_MOTION_DOT": 2.28e-06, "MEAN_MOTION_DDOT": 0}, "tle": {"line1": "1 39731U 14024A   25345.26369089  .00000228  00000+0  82426-4 0  9993", "line2": "2 39731  98.3430  57.2037 0001081  95.4805 264.6508 14.42060791611471"}}, "geometry": {"type": "Point", "coordinates": [160.66083326148797, -81.43296697818172]}}, {"type": "Feature", "properties": {"norad_id": 39766, "name": "ALOS-2", "group": "resource", "lat": 7.115080318067388, "lon": 79.52758892062366, "alt_km": 633.0703273553809, "timestamp": "2025-12-11T15:53:39.199192+00:00", "meta": {"OBJECT_NAME": "ALOS-2", "OBJECT_ID": "2014-029A", "EPOCH": "2025-12-11T06:07:21.595584", "MEAN_MOTION": 14.79463107, "ECCENTRICITY": 0.00013716, "INCLINATION": 97.9224, "RA_OF_ASC_NODE": 80.1223, "ARG_OF_PERICENTER": 99.5646, "MEAN_ANOMALY": 260.572, "EPHEMERIS_TYPE": 0, "CLASSIFICATION_TYPE": "U", "NORAD_CAT_ID": 39766, "ELEMENT_SET_NO": 999, "REV_AT_EPOCH": 62379, "BSTAR": 0.00052709887, "MEAN_MOTION_DOT": 3.886e-05, "MEAN_MOTION_DDOT": 0}, "tle": {"line1": "1 39766U 14029A   25345.25511106  .00003886  00000+0  52710-3 0  9999", "line2": "2 39766  97.9224  80.1223 0001371  99.5646 260.5720 14.79463107623794"}}, "geometry": {"type": "Point", "coordinates": [79.52758892062366, 7.115080318067388]}}, {"type": "Feature", "properties": {"norad_id": 40010, "name": "KAZEOSAT 2", "group": "resource", "lat": -73.70823109178299, "lon": -16.95734316311102, "alt_km": 616.6494965283582, "timestamp": "2025-12-11T15:53:39.199202+00:00", "meta": {"OBJECT_NAME": "KAZEOSAT 2", "OBJECT_ID": "2014-033A", "EPOCH": "2025-12-11T06:39:44.570016", "MEAN_MOTION": 14.85165564, "ECCENTRICITY": 0.0007548, "INCLINATION": 97.5504, "RA_OF_ASC_NODE": 189.6674, "ARG_OF_PERICENTER": 211.8267, "MEAN_ANOMALY": 148.2493, "EPHEMERIS_TYPE": 0, "CLASSIFICATION_TYPE": "U", "NORAD_CAT_ID": 40010, "ELEMENT_SET_NO": 999, "REV_AT_EPOCH": 62106, "BSTAR": 0.00018793742, "MEAN_MOTION_DOT": 1.56e-05, "MEAN_MOTION_DDOT": 0}, "tle": {"line1": "1 40010U 14033A   25345.27759919  .00001560  00000+0  18794-3 0  9997", "line2": "2 40010  97.5504 189.6674 0007548 211.8267 148.2493 14.85165564621060"}}, "geometry": {"type": "Point", "coordinates": [-16.95734316311102, -73.70823109178299]}}, {"type": "Feature", "properties": {"norad_id": 40011, "name": "HODOYOSHI-4", "group": "resource", "lat": -25.447906606296126, "lon": 178.2135208026698, "alt_km": 621.8578767280396, "timestamp": "2025-12-11T15:53:39.199214+00:00", "meta": {"OBJECT_NAME": "HODOYOSHI-4", "OBJECT_ID": "2014-033B", "EPOCH": "2025-12-11T07:56:14.913888", "MEAN_MOTION": 14.87471267, "ECCENTRICITY": 0.00231379, "INCLINATION": 97.5414, "RA_OF_ASC_NODE": 174.2841, "ARG_OF_PERICENTER": 205.6124, "MEAN_ANOMALY": 154.3948, "EPHEMERIS_TYPE": 0, "CLASSIFICATION_TYPE": "U", "NORAD_CAT_ID": 40011, "ELEMENT_SET_NO": 999, "REV_AT_EPOCH": 62087, "BSTAR": 0.00032873709, "MEAN_MOTION_DOT": 2.94e-05, "MEAN_MOTION_DDOT": 0}, "tle": {"line1": "1 40011U 14033B   25345.33072817  .00002940  00000+0  32874-3 0  9998", "line2": "2 40011  97.5414 174.2841 0023137 205.6124 154.3948 14.87471267620875"}}, "geometry": {"type": "Point", "coordinates": [178.2135208026698, -25.447906606296126]}}, {"type": "Feature", "properties": {"norad_id": 40013, "name": "DEIMOS-2", "group": "resource", "lat": 68.43837371332805, "lon": 61.263649707644014, "alt_km": 581.4563037549315, "timestamp": "2025-12-11T15:53:39.199224+00:00", "meta": {"OBJECT_NAME": "DEIMOS-2", "OBJECT_ID": "2014-033D", "EPOCH": "2025-12-11T05:45:04.374144", "MEAN_MOTION": 14.92961046, "ECCENTRICITY": 9.382e-05, "INCLINATION": 97.6062, "RA_OF_ASC_NODE": 221.0896, "ARG_OF_PERICENTER": 89.4301, "MEAN_ANOMALY": 270.7026, "EPHEMERIS_TYPE": 0, "CLASSIFICATION_TYPE": "U", "NORAD_CAT_ID": 40013, "ELEMENT_SET_NO": 999, "REV_AT_EPOCH": 60967, "BSTAR": 0.00026431448, "MEAN_MOTION_DOT": 2.69e-05, "MEAN_MOTION_DDOT": 0}, "tle": {"line1": "1 40013U 14033D   25345.23963396  .00002690  00000+0  26431-3 0  9994", "line2": "2 40013  97.6062 221.0896 0000938  89.4301 270.7026 14.92961046609677"}}, "geometry": {"type": "Point", "coordinates": [61.263649707644014, 68.43837371332805]}}, {"type": "Feature", "properties": {"norad_id": 40015, "name": "HODOYOSHI-3", "group": "resource", "lat": -82.37439981203356, "lon": -119.12147139329495, "alt_km": 600.4212044886272, "timestamp": "2025-12-11T15:53:39.199233+00:00", "meta": {"OBJECT_NAME": "HODOYOSHI-3", "OBJECT_ID": "2014-033F", "EPOCH": "2025-12-11T06:35:36.293568", "MEAN_MOTION": 14.8479975, "ECCENTRICITY": 0.00318657, "INCLINATION": 97.62, "RA_OF_ASC_NODE": 151.1735, "ARG_OF_PERICENTER": 252.9517, "MEAN_ANOMALY": 106.8207, "EPHEMERIS_TYPE": 0, "CLASSIFICATION_TYPE": "U", "NORAD_CAT_ID": 40015, "ELEMENT_SET_NO": 999, "REV_AT_EPOCH": 61973, "BSTAR": 0.00036480132, "MEAN_MOTION_DOT": 3.072e-05, "MEAN_MOTION_DDOT": 0}, "tle": {"line1": "1 40015U 14033F   25345.27472562  .00003072  00000+0  36480-3 0  9990", "line2": "2 40015  97.6200 151.1735 0031865 252.9517 106.8207 14.84799750619737"}}, "geometry": {"type": "Point", "coordinates": [-119.12147139329495, -82.37439981203356]}}, {"type": "Feature", "properties": {"norad_id": 40053, "name": "SPOT 7", "group": "resource", "lat": 80.93107880534596, "lon": -15.255238905193284, "alt_km": 682.2878833260575, "timestamp": "2025-12-11T15:53:39.199243+00:00", "meta": {"OBJECT_NAME": "SPOT 7", "OBJECT_ID": "2014-034A", "EPOCH": "2025-12-11T07:16:57.306720", "MEAN_MOTION": 14.60730666, "ECCENTRICITY": 0.0001548, "INCLINATION": 98.0903, "RA_OF_ASC_NODE": 47.4116, "ARG_OF_PERICENTER": 88.4015, "MEAN_ANOMALY": 271.7363, "EPHEMERIS_TYPE": 0, "CLASSIFICATION_TYPE": "U", "NORAD_CAT_ID": 40053, "ELEMENT_SET_NO": 999, "REV_AT_EPOCH": 60970, "BSTAR": 0.00017655578, "MEAN_MOTION_DOT": 8.15e-06, "MEAN_MOTION_DDOT": 0}, "tle": {"line1": "1 40053U 14034A   25345.30344105  .00000815  00000+0  17656-3 0  9994", "line2": "2 40053  98.0903  47.4116 0001548  88.4015 271.7363 14.60730666609700"}}, "geometry": {"type": "Point", "coordinates": [-15.255238905193284, 80.93107880534596]}}, {"type": "Feature", "properties": {"norad_id": 40072, "name": "SKYSAT-B", "group": "resource", "lat": -78.50991582669468, "lon": -24.344319896392008, "alt_km": 616.0203249498991, "timestamp": "2025-12-11T15:53:39.199253+00:00", "meta": {"OBJECT_NAME": "SKYSAT-B", "OBJECT_ID": "2014-037D", "EPOCH": "2025-12-11T06:34:32.084544", "MEAN_MOTION": 14.87320197, "ECCENTRICITY": 0.00060309, "INCLINATION": 98.3608, "RA_OF_ASC_NODE": 288.9026, "ARG_OF_PERICENTER": 154.6357, "MEAN_ANOMALY": 205.5155, "EPHEMERIS_TYPE": 0, "CLASSIFICATION_TYPE": "U", "NORAD_CAT_ID": 40072, "ELEMENT_SET_NO": 999, "REV_AT_EPOCH": 61802, "BSTAR": 0.00037754166, "MEAN_MOTION_DOT": 3.348e-05, "MEAN_MOTION_DDOT": 0}, "tle": {"line1": "1 40072U 14037D   25345.27398246  .00003348  00000+0  37754-3 0  9994", "line2": "2 40072  98.3608 288.9026 0006030 154.6357 205.5155 14.87320197618026"}}, "geometry": {"type": "Point", "coordinates": [-24.344319896392008, -78.50991582669468]}}]}